STARLINK-5123           
1 53979C 22125R   26100.46368056 -.00053677  00000+0 -33664-2 0  1009
2 53979  53.2160  76.4738 0001714  85.3848 113.3998 15.08859220    11
STARLINK-5133           
1 53980C 22125S   26100.41437500  .00037943  00000+0  23792-2 0  1004
2 53980  53.2153  76.4264 0001272  82.1769 348.8397 15.08820679    19
STARLINK-5149           
1 53981C 22125T   26100.44423611 -.00005175  00000+0 -32457-3 0  1009
2 53981  53.2155  61.3449 0001497  85.2414 150.5281 15.08837265    19
STARLINK-5120           
1 53982C 22125U   26100.47895833 -.00013011  00000+0 -81586-3 0  1007
2 53982  53.2152  71.4507 0001350  86.0463 183.2463 15.08845395    13
STARLINK-5142           
1 53984C 22125W   26100.46576389 -.00012145  00000+0 -76162-3 0  1001
2 53984  53.2148  71.6272 0001480  84.4262  53.0809 15.08842877    14
STARLINK-5147           
1 53985C 22125X   26100.41298611  .00035527  00000+0  22275-2 0  1008
2 53985  53.2152  71.9438 0001597  86.5581  84.0267 15.08824577    12
STARLINK-5119           
1 53986C 22125Y   26100.42548611  .00009694  00000+0  60789-3 0  1007
2 53986  53.2158  61.3343 0001424  82.5681  91.3458 15.08833707    11
STARLINK-5113           
1 53988C 22125AA  26100.43381944  .00017665  00000+0  11077-2 0  1006
2 53988  53.2148  71.7315 0001478  83.1107 260.8089 15.08831312    18
STARLINK-5118           
1 53991C 22125AD  26100.41229167  .00015139  00000+0  94927-3 0  1006
2 53991  53.2154  61.6457 0001239  78.5005 223.5307 15.08832869    11
STARLINK-5108           
1 53992C 22125AE  26100.45743056  .00005623  00000+0  35284-3 0  1007
2 53992  53.2155  71.5081 0001316  82.8648  89.5823 15.08810845    16
STARLINK-5121           
1 53993C 22125AF  26100.41159722  .00019368  00000+0  12145-2 0  1006
2 53993  53.2159  66.4677 0001836  84.6982 326.2021 15.08828387    14
STARLINK-5125           
1 53994C 22125AG  26100.39562500  .00085927  00000+0  53916-2 0  1001
2 53994  53.2162  71.6646 0001515  89.1350 167.3178 15.08772790    19
STARLINK-5097           
1 53995C 22125AH  26100.42826389  .00022050  00000+0  13827-2 0  1009
2 53995  53.2157  71.6019 0001475  83.6419 310.2237 15.08826478    16
STARLINK-5131           
1 53996C 22125AJ  26100.41368056  .00029644  00000+0  18591-2 0  1000
2 53996  53.2158  71.5452 0001419  69.5632 305.1277 15.08818806    19
STARLINK-5130           
1 53997C 22125AK  26100.47687500 -.00031920  00000+0 -20020-2 0  1007
2 53997  53.2160  61.6488 0001855  64.0668 108.7933 15.08846740    19
STARLINK-5128           
1 53998C 22125AL  26100.42548611  .00028123  00000+0  17635-2 0  1009
2 53998  53.2159  71.4141 0001568  82.1002  36.7957 15.08825190    19
STARLINK-5079           
1 53999C 22125AM  26100.44979167  .00010877  00000+0  68206-3 0  1004
2 53999  53.2159  71.4608 0001291  74.3912  96.4877 15.08833837    15
STARLINK-5088           
1 54000C 22125AN  26100.46506944 -.00009289  00000+0 -58244-3 0  1007
2 54000  53.2162  61.6640 0001480  85.1853  43.5456 15.08844665    11
STARLINK-5109           
1 54002C 22125AQ  26100.41159722 -.00000274  00000+0 -17182-4 0  1004
2 54002  53.2159  61.4517 0001539  82.4335 355.9838 15.08834284    10
STARLINK-5114           
1 54003C 22125AR  26100.44770833  .00010384  00000+0  65143-3 0  1000
2 54003  53.2160  71.3542 0001408  85.9783 133.5626 15.08817547    19
STARLINK-5129           
1 54004C 22125AS  26100.47618056 -.00002480  00000+0 -15555-3 0  1004
2 54004  53.2153  71.1073 0001425  83.4849 350.9752 15.08836805    17
STARLINK-5135           
1 54005C 22125AT  26100.44284722  .00012876  00000+0  80742-3 0  1009
2 54005  53.2156  71.2949 0001853  86.2637 147.0097 15.08832609    10
STARLINK-5096           
1 54006C 22125AU  26100.42826389  .00022192  00000+0  13916-2 0  1009
2 54006  53.2154  71.2143 0001483  78.4862 155.6106 15.08828856    12
STARLINK-5132           
1 54007C 22125AV  26100.43243056  .00020838  00000+0  13065-2 0  1005
2 54007  53.2153  71.2666 0001454  77.8585 138.8335 15.08832432    17
STARLINK-5145           
1 54008C 22125AW  26100.38104167  .00031549  00000+0  19784-2 0  1004
2 54008  53.2159  61.4950 0001304  85.2582 227.1746 15.08821524    13
STARLINK-5099           
1 54009C 22125AX  26100.45118056 -.00009412  00000+0 -59016-3 0  1004
2 54009  53.2151  71.1432 0001829  73.2834 265.3363 15.08844649    10
STARLINK-5127           
1 54010C 22125AY  26100.46993056 -.00013371  00000+0 -83849-3 0  1008
2 54010  53.2161  61.0262 0001454  84.7996  30.7601 15.08844029    13
STARLINK-5124           
1 54011C 22125AZ  26100.47618056 -.00017112  00000+0 -10735-2 0  1004
2 54011  53.2158  61.5756 0001378  86.9318 122.2030 15.08831457    14
STARLINK-5126           
1 54012C 22125BA  26100.40465278  .00018093  00000+0  11345-2 0  1009
2 54012  53.2153  61.6231 0001237  76.7341 243.8483 15.08830724    14
STARLINK-5098           
1 54013C 22125BB  26100.44770833  .00000678  00000+0  42517-4 0  1007
2 54013  53.2156  61.5090 0001459  81.9057  72.6248 15.08838180    19
STARLINK-5055           
1 54015C 22125BD  26100.38590278 -.00002594  00000+0 -16268-3 0  1009
2 54015  53.2154  61.7442 0001213  89.4628 109.2002 15.08839298    13
STARLINK-5195           
1 54051C 22136A   26100.42756944 -.00022673  00000+0 -14215-2 0  1009
2 54051  53.2158 201.8912 0001228  92.0616 202.7995 15.08858020    13
STARLINK-5189           
1 54052C 22136B   26100.47479167 -.00007446  00000+0 -46707-3 0  1007
2 54052  53.2152 161.2446 0001264  79.2992  12.5384 15.08831173    12
STARLINK-5176           
1 54053C 22136C   26100.44145833 -.00046925  00000+0 -29423-2 0  1005
2 54053  53.2160 201.7890 0001284  88.5916 301.7991 15.08865189    17
STARLINK-5163           
1 54054C 22136D   26100.38729167 -.00018021  00000+0 -11306-2 0  1004
2 54054  53.2159 201.9517 0001468  77.9634  58.1549 15.08829623    12
STARLINK-5158           
1 54055C 22136E   26100.48173611 -.00017644  00000+0 -11061-2 0  1001
2 54055  53.2156 201.5681 0001133  82.8829 186.4201 15.08856992    17
STARLINK-5226           
1 54056C 22136F   26100.46020833 -.00065854  00000+0 -41287-2 0  1006
2 54056  53.2155 201.0852 0001207  87.4164   5.2867 15.08879019    18
STARLINK-5167           
1 54058C 22136H   26100.48451389 -.00023437  00000+0 -14695-2 0  1008
2 54058  53.2151 201.3955 0001224  90.3936 274.1202 15.08854294    10
STARLINK-5173           
1 54059C 22136J   26100.43034722 -.00024266  00000+0 -15214-2 0  1001
2 54059  53.2156 201.6804 0001319  87.6856 322.4180 15.08858637    14
STARLINK-5169           
1 54060C 22136K   26100.42687500 -.00017532  00000+0 -10986-2 0  1009
2 54060  53.2145 171.3061 0001039  89.8877 166.6613 15.08874926    16
STARLINK-5209           
1 54061C 22136L   26100.44145833 -.00053040  00000+0 -33260-2 0  1004
2 54061  53.2145 166.1937 0001182  77.9135 265.3757 15.08865063    13
STARLINK-5170           
1 54062C 22136M   26100.42062500 -.00023043  00000+0 -14445-2 0  1006
2 54062  53.2150 201.6427 0001206  85.9688 311.3361 15.08860732    19
STARLINK-5172           
1 54064C 22136P   26100.47618056 -.00007141  00000+0 -44780-3 0  1003
2 54064  53.2145 156.6080 0001320  78.8700 187.7483 15.08841608    13
STARLINK-5187           
1 54065C 22136Q   26100.40187500 -.00021185  00000+0 -13281-2 0  1007
2 54065  53.2145 201.6119 0001232  87.6085 267.8707 15.08858867    18
STARLINK-5151           
1 54066C 22136R   26100.44562500 -.00020374  00000+0 -12773-2 0  1003
2 54066  53.2144 201.4597 0001289  89.2209 124.0090 15.08856466    16
STARLINK-5174           
1 54067C 22136S   26100.45743056 -.00042570  00000+0 -26692-2 0  1009
2 54067  53.2147 201.2846 0001153  73.5469 263.9282 15.08863639    15
STARLINK-5222           
1 54068C 22136T   26100.41576389 -.00052693  00000+0 -33040-2 0  1001
2 54068  53.2145 201.5088 0001176  90.1771   0.8382 15.08867726    11
STARLINK-5181           
1 54070C 22136V   26100.39076389 -.00021675  00000+0 -13588-2 0  1007
2 54070  53.2149 201.5045 0001163  93.2661 281.9337 15.08860422    17
STARLINK-5168           
1 54071C 22136W   26100.47062500 -.00058688  00000+0 -36795-2 0  1006
2 54071  53.2151 201.1072 0001218  90.7811  18.4848 15.08874549    12
STARLINK-5146           
1 54073C 22136Y   26100.40673611 -.00037290  00000+0 -23382-2 0  1006
2 54073  53.2146 196.3981 0001211  92.2929  37.2577 15.08859591    10
STARLINK-5192           
1 54074C 22136Z   26100.42201389 -.00021972  00000+0 -13765-2 0  1002
2 54074  53.2153 201.2854 0001249  98.7806 126.3550 15.08885512    13
STARLINK-5212           
1 54075C 22136AA  26100.40673611 -.00057296  00000+0 -35925-2 0  1002
2 54075  53.2149 196.3554 0001214  90.7318  58.8495 15.08871399    17
STARLINK-5201           
1 54076C 22136AB  26100.40881944 -.00038132  00000+0 -23907-2 0  1008
2 54076  53.2157 201.9300 0001171  89.4729 118.3454 15.08863655    15
STARLINK-5171           
1 54077C 22136AC  26100.45395833 -.00079644  00000+0 -49930-2 0  1008
2 54077  53.2148 177.1627 0001255  83.2116 247.1008 15.08887617    17
STARLINK-5175           
1 54079C 22136AE  26100.42340278 -.00025119  00000+0 -15764-2 0  1006
2 54079  53.2141 191.8881 0001175  78.8824 208.5173 15.08821322    19
STARLINK-5160           
1 54080C 22136AF  26100.43104167  .00958090  00000+0  53578-1 0  1009
2 54080  53.2169 196.7551 0001823  89.2510 292.2104 15.12498142    16
STARLINK-5210           
1 54082C 22136AH  26100.38868056 -.00038257  00000+0 -23959-2 0  1006
2 54082  53.2148 192.0039 0001446  88.6145  29.9501 15.08904988    14
STARLINK-5178           
1 54083C 22136AJ  26100.43937500 -.00026462  00000+0 -16592-2 0  1004
2 54083  53.2153 191.6595 0001061  94.0524   0.0894 15.08854701    10
STARLINK-5183           
1 54084C 22136AK  26100.39284722 -.00040067  00000+0 -25121-2 0  1006
2 54084  53.2149 191.9459 0000844  94.4072  66.8320 15.08865555    11
